{"fetched_at":"2026-03-29T02:12:04Z","count":15717,"tles":[{"name":"CXO","line1":"1 25867U 99040B   26090.04236321  .00000780  00000+0  00000+0 0  9991","line2":"2 25867  54.9448 118.9145 7963177 310.7103   0.1107  0.37810947 17026","category":"Other"}]}